{
  "norad_id": 59795,
  "name": "STARLINK-31916",
  "history": [
    {
      "epoch": "2026-03-28T12:13:59.884896Z",
      "apogee_km": 483.9594310478187,
      "perigee_km": 482.1412164070307,
      "latitude_deg": 5.8253183040724524e-05,
      "longitude_deg": 93.18190210901928,
      "height_km": 483.0421309716471,
      "semi_major_axis_km": 6861.187323727424,
      "eccentricity": 0.0001325,
      "inclination_deg": 43.0027,
      "raan_deg": 102.6105,
      "arg_perigee_deg": 256.3244,
      "mean_anomaly_deg": 103.7461,
      "mean_motion_rev_day": 15.2757959
    },
    {
      "epoch": "2026-03-29T02:21:24.301152Z",
      "apogee_km": 483.9082069562528,
      "perigee_km": 482.17507323176415,
      "latitude_deg": 1.431642500695855e-05,
      "longitude_deg": -122.57370872234027,
      "height_km": 483.1877294818577,
      "semi_major_axis_km": 6861.178640094008,
      "eccentricity": 0.0001263,
      "inclination_deg": 43.0031,
      "raan_deg": 99.2867,
      "arg_perigee_deg": 244.7746,
      "mean_anomaly_deg": 115.2975,
      "mean_motion_rev_day": 15.2758249
    },
    {
      "epoch": "2026-03-30T00:19:35.662080Z",
      "apogee_km": 483.8003206326721,
      "perigee_km": 482.3978839733618,
      "latitude_deg": -1.1851825459369457e-06,
      "longitude_deg": -98.19363052676408,
      "height_km": 483.16510800103566,
      "semi_major_axis_km": 6861.236102303017,
      "eccentricity": 0.0001022,
      "inclination_deg": 43.0023,
      "raan_deg": 94.1164,
      "arg_perigee_deg": 245.6167,
      "mean_anomaly_deg": 114.4578,
      "mean_motion_rev_day": 15.275633
    },
    {
      "epoch": "2026-03-30T06:36:13.160448Z",
      "apogee_km": 483.78874108508444,
      "perigee_km": 482.3760160150405,
      "latitude_deg": 2.685876978646481e-05,
      "longitude_deg": 165.91546584680006,
      "height_km": 483.142101589276,
      "semi_major_axis_km": 6861.219378550062,
      "eccentricity": 0.00010295,
      "inclination_deg": 43.0022,
      "raan_deg": 92.6395,
      "arg_perigee_deg": 246.3629,
      "mean_anomaly_deg": 113.7115,
      "mean_motion_rev_day": 15.27568885
    },
    {
      "epoch": "2026-03-30T11:18:41.273856Z",
      "apogee_km": 483.72801212663035,
      "perigee_km": 482.4113465648643,
      "latitude_deg": 1.113552507192406e-06,
      "longitude_deg": 93.99725656280174,
      "height_km": 483.11046554219485,
      "semi_major_axis_km": 6861.206679345747,
      "eccentricity": 9.595e-05,
      "inclination_deg": 43.0024,
      "raan_deg": 91.5318,
      "arg_perigee_deg": 246.3296,
      "mean_anomaly_deg": 113.7455,
      "mean_motion_rev_day": 15.27573126
    },
    {
      "epoch": "2026-03-31T06:08:34.399680Z",
      "apogee_km": 483.7825341196394,
      "perigee_km": 482.3471706921164,
      "latitude_deg": -1.782190256333404e-06,
      "longitude_deg": 166.32061774897394,
      "height_km": 483.28884460383307,
      "semi_major_axis_km": 6861.201852405878,
      "eccentricity": 0.0001046,
      "inclination_deg": 43.0023,
      "raan_deg": 87.0999,
      "arg_perigee_deg": 231.4148,
      "mean_anomaly_deg": 128.661,
      "mean_motion_rev_day": 15.27574738
    },
    {
      "epoch": "2026-04-01T10:23:23.533728Z",
      "apogee_km": 483.7959773304674,
      "perigee_km": 482.3482622061965,
      "latitude_deg": -1.007655275581746e-05,
      "longitude_deg": 94.81022296583212,
      "height_km": 483.347414803858,
      "semi_major_axis_km": 6861.209119768331,
      "eccentricity": 0.0001055,
      "inclination_deg": 43.0019,
      "raan_deg": 80.4543,
      "arg_perigee_deg": 226.4199,
      "mean_anomaly_deg": 133.6565,
      "mean_motion_rev_day": 15.27572311
    },
    {
      "epoch": "2026-04-02T05:13:15.697920Z",
      "apogee_km": 483.7953471173578,
      "perigee_km": 482.3052344615453,
      "latitude_deg": 3.951605499306704e-05,
      "longitude_deg": 167.1384577731638,
      "height_km": 483.19386001472895,
      "semi_major_axis_km": 6861.187290789451,
      "eccentricity": 0.00010859,
      "inclination_deg": 43.0032,
      "raan_deg": 76.0232,
      "arg_perigee_deg": 240.4934,
      "mean_anomaly_deg": 119.581,
      "mean_motion_rev_day": 15.27579601
    },
    {
      "epoch": "2026-04-03T15:44:42.432288Z",
      "apogee_km": 483.9283125819975,
      "perigee_km": 482.18694138566934,
      "latitude_deg": -5.6327516641992676e-06,
      "longitude_deg": -0.2649371860922586,
      "height_km": 483.0777782190641,
      "semi_major_axis_km": 6861.194626983834,
      "eccentricity": 0.0001269,
      "inclination_deg": 43.0045,
      "raan_deg": 67.8991,
      "arg_perigee_deg": 253.7849,
      "mean_anomaly_deg": 106.2863,
      "mean_motion_rev_day": 15.27577151
    },
    {
      "epoch": "2026-04-04T15:17:04.043904Z",
      "apogee_km": 483.9180233748393,
      "perigee_km": 482.18625923557374,
      "latitude_deg": 1.1724780666321656e-05,
      "longitude_deg": 0.1423060884223718,
      "height_km": 482.96257319573,
      "semi_major_axis_km": 6861.189141305206,
      "eccentricity": 0.0001262,
      "inclination_deg": 43.0064,
      "raan_deg": 62.3631,
      "arg_perigee_deg": 261.1533,
      "mean_anomaly_deg": 98.9176,
      "mean_motion_rev_day": 15.27578983
    },
    {
      "epoch": "2026-04-05T05:24:27.099360Z",
      "apogee_km": 483.8201313816844,
      "perigee_km": 482.20501677194534,
      "latitude_deg": 8.129078683996218e-06,
      "longitude_deg": 144.39332319149614,
      "height_km": 482.7663587856563,
      "semi_major_axis_km": 6861.149574076814,
      "eccentricity": 0.0001177,
      "inclination_deg": 43.0065,
      "raan_deg": 59.0402,
      "arg_perigee_deg": 271.6643,
      "mean_anomaly_deg": 88.4074,
      "mean_motion_rev_day": 15.27592197
    },
    {
      "epoch": "2026-04-05T14:49:24.217824Z",
      "apogee_km": 483.32671706970723,
      "perigee_km": 482.81212658807,
      "latitude_deg": 2.2138597401539777e-05,
      "longitude_deg": 0.5537479442184927,
      "height_km": 482.834536996084,
      "semi_major_axis_km": 6861.206421828889,
      "eccentricity": 3.75e-05,
      "inclination_deg": 43.0013,
      "raan_deg": 56.8253,
      "arg_perigee_deg": 272.4079,
      "mean_anomaly_deg": 87.673,
      "mean_motion_rev_day": 15.27573212
    },
    {
      "epoch": "2026-04-06T06:30:59.358240Z",
      "apogee_km": 483.71229306942223,
      "perigee_km": 482.4606686820416,
      "latitude_deg": -1.0715565828653037e-05,
      "longitude_deg": 120.81970065918054,
      "height_km": 482.85913429059394,
      "semi_major_axis_km": 6861.223480875732,
      "eccentricity": 9.121e-05,
      "inclination_deg": 43.0052,
      "raan_deg": 53.1322,
      "arg_perigee_deg": 270.3855,
      "mean_anomaly_deg": 89.6892,
      "mean_motion_rev_day": 15.27567515
    },
    {
      "epoch": "2026-04-07T06:03:18.658656Z",
      "apogee_km": 483.68675702843575,
      "perigee_km": 482.35569233284696,
      "latitude_deg": 3.1331827260182105e-05,
      "longitude_deg": 121.23252470873175,
      "height_km": 482.95110675541815,
      "semi_major_axis_km": 6861.158224680641,
      "eccentricity": 9.7e-05,
      "inclination_deg": 43.0058,
      "raan_deg": 47.5921,
      "arg_perigee_deg": 256.7136,
      "mean_anomaly_deg": 103.3608,
      "mean_motion_rev_day": 15.27589308
    },
    {
      "epoch": "2026-04-08T13:26:26.900448Z",
      "apogee_km": 483.92439971290423,
      "perigee_km": 482.20059195157137,
      "latitude_deg": -5.905064039426046e-05,
      "longitude_deg": 1.7748218927510855,
      "height_km": 482.80052481604673,
      "semi_major_axis_km": 6861.1994958322375,
      "eccentricity": 0.00012562,
      "inclination_deg": 43.0048,
      "raan_deg": 40.2078,
      "arg_perigee_deg": 272.6,
      "mean_anomaly_deg": 87.4707,
      "mean_motion_rev_day": 15.27575525
    },
    {
      "epoch": "2026-04-09T20:49:34.907232Z",
      "apogee_km": 483.8341501988625,
      "perigee_km": 482.302729144727,
      "latitude_deg": 9.234089250506503e-06,
      "longitude_deg": -117.68322982336534,
      "height_km": 482.81826695701506,
      "semi_major_axis_km": 6861.205439671794,
      "eccentricity": 0.0001116,
      "inclination_deg": 43.0051,
      "raan_deg": 32.822,
      "arg_perigee_deg": 272.0361,
      "mean_anomaly_deg": 88.0363,
      "mean_motion_rev_day": 15.2757354
    },
    {
      "epoch": "2026-04-10T03:06:12.257856Z",
      "apogee_km": 483.83322361542923,
      "perigee_km": 482.2857493598667,
      "latitude_deg": -1.9172253532856234e-05,
      "longitude_deg": 146.42682264715322,
      "height_km": 482.7484043233545,
      "semi_major_axis_km": 6861.196486487647,
      "eccentricity": 0.00011277,
      "inclination_deg": 43.0054,
      "raan_deg": 31.3455,
      "arg_perigee_deg": 276.5428,
      "mean_anomaly_deg": 83.5295,
      "mean_motion_rev_day": 15.2757653
    }
  ]
}